STARLINK-30947          
1 58473U 23186A   25356.41462688  .00000308  00000+0  37879-4 0  9995
2 58473  43.0030 127.6613 0001395 265.7016  94.3667 15.02538528114224
STARLINK-30995          
1 58474U 23186B   25355.98267404  .00178343  00000+0  42206-2 0  9999
2 58474  42.9964 325.0210 0011860 149.8247 210.3295 15.40330426116220
STARLINK-30941          
1 58475U 23186C   25355.80967085 -.00000201  00000+0  20171-6 0  9992
2 58475  43.0031 130.8602 0001355 266.3960  93.6727 15.02532932114134
STARLINK-30980          
1 58476U 23186D   25356.33817333  .00003136  00000+0  24718-3 0  9999
2 58476  43.0021 127.9424 0001102 260.3574  99.7144 15.02526999114213
STARLINK-30965          
1 58477U 23186E   25356.39046157  .00000890  00000+0  80945-4 0  9993
2 58477  43.0041 114.4744 0001819 283.7156  76.3484 15.02539099114372
STARLINK-30990          
1 58478U 23186F   25356.06891626  .00000945  00000+0  85010-4 0  9996
2 58478  43.0029 129.3631 0001376 266.5896  93.4789 15.02538500114214
STARLINK-30984          
1 58480U 23186H   25356.08877699  .00000790  00000+0  73516-4 0  9991
2 58480  43.0027 128.6488 0001595 273.9456  86.1204 15.02537336114187
STARLINK-30956          
1 58481U 23186J   25356.57051405  .00000769  00000+0  71976-4 0  9999
2 58481  43.0030 101.8248 0001485 274.6140  85.4533 15.02540856114532
STARLINK-30997          
1 58482U 23186K   25356.63724490  .00004370  00000+0  33829-3 0  9994
2 58482  43.0024 125.8590 0001425 272.6109  87.4570 15.02544520114264
STARLINK-30994          
1 58483U 23186L   25356.00715381  .00001603  00000+0  67769-4 0  9992
2 58483  43.0020 338.8774 0000560 284.3296  75.7493 15.27578247115925
STARLINK-30991          
1 58484U 23186M   25356.41783225  .00000719  00000+0  68316-4 0  9996
2 58484  43.0032 126.8165 0001380 268.1358  91.9326 15.02541281114226
STARLINK-30979          
1 58485U 23186N   25356.32816897  .00000600  00000+0  59522-4 0  9997
2 58485  43.0037 127.8695 0001457 271.9918  88.0758 15.02533993114205
STARLINK-31005          
1 58486U 23186P   25356.45779191  .00000853  00000+0  78203-4 0  9994
2 58486  43.0000 127.1180 0001492 266.5530  93.5141 15.02538778114222
STARLINK-30987          
1 58487U 23186Q   25356.38798790 -.00000012  00000+0  14212-4 0  9991
2 58487  43.0028 127.4552 0001276 258.8650 101.2049 15.02536609114210
STARLINK-31000          
1 58488U 23186R   25356.38466928  .00001120  00000+0  97976-4 0  9995
2 58488  43.0029 127.4305 0001672 272.4461  87.6190 15.02546841114213
STARLINK-30993          
1 58489U 23186S   25355.71654940  .00000546  00000+0  55463-4 0  9991
2 58489  43.0022 131.0171 0001463 263.5060  96.5616 15.02536241114117
