[{"OBJECT_NAME":"STARLINK-30947","OBJECT_ID":"2023-186A","EPOCH":"2025-12-22T09:57:03.762432","MEAN_MOTION":15.02538528,"ECCENTRICITY":0.00013959,"INCLINATION":43.003,"RA_OF_ASC_NODE":127.6613,"ARG_OF_PERICENTER":265.7016,"MEAN_ANOMALY":94.3667,"EPHEMERIS_TYPE":0,"CLASSIFICATION_TYPE":"U","NORAD_CAT_ID":58473,"ELEMENT_SET_NO":999,"REV_AT_EPOCH":11422,"BSTAR":3.7878536e-5,"MEAN_MOTION_DOT":3.08e-6,"MEAN_MOTION_DDOT":0},{"OBJECT_NAME":"STARLINK-30995","OBJECT_ID":"2023-186B","EPOCH":"2025-12-21T23:35:03.037056","MEAN_MOTION":15.40330426,"ECCENTRICITY":0.001186,"INCLINATION":42.9964,"RA_OF_ASC_NODE":325.021,"ARG_OF_PERICENTER":149.8247,"MEAN_ANOMALY":210.3295,"EPHEMERIS_TYPE":0,"CLASSIFICATION_TYPE":"U","NORAD_CAT_ID":58474,"ELEMENT_SET_NO":999,"REV_AT_EPOCH":11622,"BSTAR":0.0042206,"MEAN_MOTION_DOT":0.00178343,"MEAN_MOTION_DDOT":0},{"OBJECT_NAME":"STARLINK-30941","OBJECT_ID":"2023-186C","EPOCH":"2025-12-21T19:25:55.561440","MEAN_MOTION":15.02532932,"ECCENTRICITY":0.00013558,"INCLINATION":43.0031,"RA_OF_ASC_NODE":130.8602,"ARG_OF_PERICENTER":266.396,"MEAN_ANOMALY":93.6727,"EPHEMERIS_TYPE":0,"CLASSIFICATION_TYPE":"U","NORAD_CAT_ID":58475,"ELEMENT_SET_NO":999,"REV_AT_EPOCH":11413,"BSTAR":2.0171e-7,"MEAN_MOTION_DOT":-2.01e-6,"MEAN_MOTION_DDOT":0},{"OBJECT_NAME":"STARLINK-30980","OBJECT_ID":"2023-186D","EPOCH":"2025-12-22T08:06:58.175712","MEAN_MOTION":15.02526999,"ECCENTRICITY":0.00011024,"INCLINATION":43.0021,"RA_OF_ASC_NODE":127.9424,"ARG_OF_PERICENTER":260.3574,"MEAN_ANOMALY":99.7144,"EPHEMERIS_TYPE":0,"CLASSIFICATION_TYPE":"U","NORAD_CAT_ID":58476,"ELEMENT_SET_NO":999,"REV_AT_EPOCH":11421,"BSTAR":0.0002471812,"MEAN_MOTION_DOT":3.136e-5,"MEAN_MOTION_DDOT":0},{"OBJECT_NAME":"STARLINK-30965","OBJECT_ID":"2023-186E","EPOCH":"2025-12-22T09:22:15.879648","MEAN_MOTION":15.02539099,"ECCENTRICITY":0.00018198,"INCLINATION":43.0041,"RA_OF_ASC_NODE":114.4744,"ARG_OF_PERICENTER":283.7156,"MEAN_ANOMALY":76.3484,"EPHEMERIS_TYPE":0,"CLASSIFICATION_TYPE":"U","NORAD_CAT_ID":58477,"ELEMENT_SET_NO":999,"REV_AT_EPOCH":11437,"BSTAR":8.0944822e-5,"MEAN_MOTION_DOT":8.9e-6,"MEAN_MOTION_DDOT":0},{"OBJECT_NAME":"STARLINK-30990","OBJECT_ID":"2023-186F","EPOCH":"2025-12-22T01:39:14.364864","MEAN_MOTION":15.025385,"ECCENTRICITY":0.00013761,"INCLINATION":43.0029,"RA_OF_ASC_NODE":129.3631,"ARG_OF_PERICENTER":266.5896,"MEAN_ANOMALY":93.4789,"EPHEMERIS_TYPE":0,"CLASSIFICATION_TYPE":"U","NORAD_CAT_ID":58478,"ELEMENT_SET_NO":999,"REV_AT_EPOCH":11421,"BSTAR":8.5009533e-5,"MEAN_MOTION_DOT":9.45e-6,"MEAN_MOTION_DDOT":0},{"OBJECT_NAME":"STARLINK-30984","OBJECT_ID":"2023-186H","EPOCH":"2025-12-22T02:07:50.331936","MEAN_MOTION":15.02537336,"ECCENTRICITY":0.00015953,"INCLINATION":43.0027,"RA_OF_ASC_NODE":128.6488,"ARG_OF_PERICENTER":273.9456,"MEAN_ANOMALY":86.1204,"EPHEMERIS_TYPE":0,"CLASSIFICATION_TYPE":"U","NORAD_CAT_ID":58480,"ELEMENT_SET_NO":999,"REV_AT_EPOCH":11418,"BSTAR":7.3516188e-5,"MEAN_MOTION_DOT":7.9e-6,"MEAN_MOTION_DDOT":0},{"OBJECT_NAME":"STARLINK-30956","OBJECT_ID":"2023-186J","EPOCH":"2025-12-22T13:41:32.413920","MEAN_MOTION":15.02540856,"ECCENTRICITY":0.00014852,"INCLINATION":43.003,"RA_OF_ASC_NODE":101.8248,"ARG_OF_PERICENTER":274.614,"MEAN_ANOMALY":85.4533,"EPHEMERIS_TYPE":0,"CLASSIFICATION_TYPE":"U","NORAD_CAT_ID":58481,"ELEMENT_SET_NO":999,"REV_AT_EPOCH":11453,"BSTAR":7.1976085e-5,"MEAN_MOTION_DOT":7.69e-6,"MEAN_MOTION_DDOT":0},{"OBJECT_NAME":"STARLINK-30997","OBJECT_ID":"2023-186K","EPOCH":"2025-12-22T15:17:37.959360","MEAN_MOTION":15.0254452,"ECCENTRICITY":0.00014254,"INCLINATION":43.0024,"RA_OF_ASC_NODE":125.859,"ARG_OF_PERICENTER":272.6109,"MEAN_ANOMALY":87.457,"EPHEMERIS_TYPE":0,"CLASSIFICATION_TYPE":"U","NORAD_CAT_ID":58482,"ELEMENT_SET_NO":999,"REV_AT_EPOCH":11426,"BSTAR":0.00033829391,"MEAN_MOTION_DOT":4.37e-5,"MEAN_MOTION_DDOT":0},{"OBJECT_NAME":"STARLINK-30994","OBJECT_ID":"2023-186L","EPOCH":"2025-12-22T00:10:18.089184","MEAN_MOTION":15.27578247,"ECCENTRICITY":5.609e-5,"INCLINATION":43.002,"RA_OF_ASC_NODE":338.8774,"ARG_OF_PERICENTER":284.3296,"MEAN_ANOMALY":75.7493,"EPHEMERIS_TYPE":0,"CLASSIFICATION_TYPE":"U","NORAD_CAT_ID":58483,"ELEMENT_SET_NO":999,"REV_AT_EPOCH":11592,"BSTAR":6.7768563e-5,"MEAN_MOTION_DOT":1.603e-5,"MEAN_MOTION_DDOT":0},{"OBJECT_NAME":"STARLINK-30991","OBJECT_ID":"2023-186M","EPOCH":"2025-12-22T10:01:40.706400","MEAN_MOTION":15.02541281,"ECCENTRICITY":0.00013802,"INCLINATION":43.0032,"RA_OF_ASC_NODE":126.8165,"ARG_OF_PERICENTER":268.1358,"MEAN_ANOMALY":91.9326,"EPHEMERIS_TYPE":0,"CLASSIFICATION_TYPE":"U","NORAD_CAT_ID":58484,"ELEMENT_SET_NO":999,"REV_AT_EPOCH":11422,"BSTAR":6.831595e-5,"MEAN_MOTION_DOT":7.19e-6,"MEAN_MOTION_DDOT":0},{"OBJECT_NAME":"STARLINK-30979","OBJECT_ID":"2023-186N","EPOCH":"2025-12-22T07:52:33.799008","MEAN_MOTION":15.02533993,"ECCENTRICITY":0.00014574,"INCLINATION":43.0037,"RA_OF_ASC_NODE":127.8695,"ARG_OF_PERICENTER":271.9918,"MEAN_ANOMALY":88.0758,"EPHEMERIS_TYPE":0,"CLASSIFICATION_TYPE":"U","NORAD_CAT_ID":58485,"ELEMENT_SET_NO":999,"REV_AT_EPOCH":11420,"BSTAR":5.9522177e-5,"MEAN_MOTION_DOT":6.0e-6,"MEAN_MOTION_DDOT":0},{"OBJECT_NAME":"STARLINK-31005","OBJECT_ID":"2023-186P","EPOCH":"2025-12-22T10:59:13.221024","MEAN_MOTION":15.02538778,"ECCENTRICITY":0.00014929,"INCLINATION":43,"RA_OF_ASC_NODE":127.118,"ARG_OF_PERICENTER":266.553,"MEAN_ANOMALY":93.5141,"EPHEMERIS_TYPE":0,"CLASSIFICATION_TYPE":"U","NORAD_CAT_ID":58486,"ELEMENT_SET_NO":999,"REV_AT_EPOCH":11422,"BSTAR":7.8203409e-5,"MEAN_MOTION_DOT":8.53e-6,"MEAN_MOTION_DDOT":0},{"OBJECT_NAME":"STARLINK-30987","OBJECT_ID":"2023-186Q","EPOCH":"2025-12-22T09:18:42.154560","MEAN_MOTION":15.02536609,"ECCENTRICITY":0.00012767,"INCLINATION":43.0028,"RA_OF_ASC_NODE":127.4552,"ARG_OF_PERICENTER":258.865,"MEAN_ANOMALY":101.2049,"EPHEMERIS_TYPE":0,"CLASSIFICATION_TYPE":"U","NORAD_CAT_ID":58487,"ELEMENT_SET_NO":999,"REV_AT_EPOCH":11421,"BSTAR":1.4211507e-5,"MEAN_MOTION_DOT":-1.2e-7,"MEAN_MOTION_DDOT":0},{"OBJECT_NAME":"STARLINK-31000","OBJECT_ID":"2023-186R","EPOCH":"2025-12-22T09:13:55.425792","MEAN_MOTION":15.02546841,"ECCENTRICITY":0.00016723,"INCLINATION":43.0029,"RA_OF_ASC_NODE":127.4305,"ARG_OF_PERICENTER":272.4461,"MEAN_ANOMALY":87.619,"EPHEMERIS_TYPE":0,"CLASSIFICATION_TYPE":"U","NORAD_CAT_ID":58488,"ELEMENT_SET_NO":999,"REV_AT_EPOCH":11421,"BSTAR":9.7975831e-5,"MEAN_MOTION_DOT":1.12e-5,"MEAN_MOTION_DDOT":0},{"OBJECT_NAME":"STARLINK-30993","OBJECT_ID":"2023-186S","EPOCH":"2025-12-21T17:11:49.868160","MEAN_MOTION":15.02536241,"ECCENTRICITY":0.00014635,"INCLINATION":43.0022,"RA_OF_ASC_NODE":131.0171,"ARG_OF_PERICENTER":263.506,"MEAN_ANOMALY":96.5616,"EPHEMERIS_TYPE":0,"CLASSIFICATION_TYPE":"U","NORAD_CAT_ID":58489,"ELEMENT_SET_NO":999,"REV_AT_EPOCH":11411,"BSTAR":5.5462634e-5,"MEAN_MOTION_DOT":5.46e-6,"MEAN_MOTION_DDOT":0}]
